GONETS-M 25             
1 54152U 22139C   26200.82353112  .00000042  00000+0  23335-3 0  9993
2 54152  82.5080 327.7541 0021327 157.2826 202.9202 12.42891006169700
SKIF-D                  
1 54153U 22139D   26200.23445089 -.00000001  00000+0  00000+0 0  9990
2 54153  89.9488  96.6589 0007468 185.6510 174.4138  5.00432406 65711
STARLINK-5290           
1 54157U 22141A   26200.80984328  .00000000  00000+0  18075-4 0  9998
2 54157  53.1614 140.6670 0001365  84.6892 275.4255 15.08830304205661
STARLINK-5297           
1 54158U 22141B   26200.82731079  .00000618  00000+0  56954-4 0  9997
2 54158  53.1605 140.7749 0001497  77.7279 282.3880 15.08831558205661
STARLINK-5294           
1 54159U 22141C   26200.82362190  .00000379  00000+0  41910-4 0  9992
2 54159  53.1607 140.7584 0001568  77.0065 283.1102 15.08833968205669
STARLINK-5233           
1 54160U 22141D   26200.83335647  .00007959  00000+0  29384-3 0  9993
2 54160  53.1608  94.4938 0001047  75.0450 287.8345 15.28675466  5834
STARLINK-5269           
1 54161U 22141E   26200.83335647  .00027112  00000+0  94849-3 0  9995
2 54161  53.1610 139.4585 0001240  91.4073 247.0910 15.29354881  5791
STARLINK-5273           
1 54162U 22141F   26200.81625472  .00000030  00000+0  19980-4 0  9996
2 54162  53.1607 140.7036 0001623  75.5379 284.5793 15.08839722205663
STARLINK-5161           
1 54163U 22141G   26200.18483344  .00000533  00000+0  26918-4 0  9994
2 54163  53.1610 129.6985 0001249  89.3691 270.7455 15.34385703205768
STARLINK-5278           
1 54164U 22141H   26200.53154884  .00000426  00000+0  23744-4 0  9993
2 54164  53.1625 128.3039 0001218  78.1581 281.9558 15.34385917205812
STARLINK-5279           
1 54165U 22141J   26200.21641722  .00000363  00000+0  40953-4 0  9992
2 54165  53.1605 143.3627 0001679  96.8093 263.3090 15.08822301205579
STARLINK-5280           
1 54166U 22141K   26200.53831186 -.00000062  00000+0  91263-5 0  9991
2 54166  53.1626 128.3429 0001249  83.9801 276.1344 15.35403298205814
STARLINK-5243           
1 54167U 22141L   26200.86038372 -.00000428  00000+0 -87963-5 0  9993
2 54167  53.1600 140.2692 0001730  86.7222 273.3967 15.08831272205676
STARLINK-5245           
1 54168U 22141M   26200.80223586  .00000064  00000+0  12731-4 0  9995
2 54168  53.1618 127.1482 0001333  90.8344 269.2811 15.35400800205858
STARLINK-5282           
1 54169U 22141N   26200.80055385 -.00001340  00000+0 -27521-4 0  9999
2 54169  53.1618 127.1397 0001399  84.0376 276.0787 15.35388677205851
STARLINK-5155           
1 54170U 22141P   26200.51598159 -.00000236  00000+0  41452-5 0  9992
2 54170  53.1610 128.2097 0001138  90.9828 269.1305 15.35399284205814
STARLINK-5117           
1 54172U 22141R   26200.18004581  .00000291  00000+0  20202-4 0  9997
2 54172  53.1609 129.6699 0001966  89.6977 270.4250 15.33547554205767
STARLINK-5242           
1 54173U 22141S   26200.19956315  .00004743  00000+0  15158-3 0  9999
2 54173  53.1618 129.7850 0001232  74.1269 285.9870 15.34367881205760
STARLINK-5248           
1 54174U 22141T   26200.83335647  .00009934  00000+0  44437-3 0  9999
2 54174  53.1598  74.6641 0002391  93.2138 195.0426 15.21914379  5782
STARLINK-5256           
1 54175U 22141U   26200.83335647  .00008849  00000+0  27272-3 0  9992
2 54175  53.1603 126.8705 0001765  95.8587 143.9165 15.34398997  5835
STARLINK-5154           
1 54176U 22141V   26200.80883642  .00000360  00000+0  21792-4 0  9995
2 54176  53.1621 126.4880 0001326  88.6094 271.5061 15.34392161205867
STARLINK-5186           
1 54177U 22141W   26200.77526719  .00000419  00000+0  23540-4 0  9999
2 54177  53.1610 126.9822 0001619  93.2258 266.8930 15.34384438205855
STARLINK-5164           
1 54178U 22141X   26200.18693246  .00000272  00000+0  19195-4 0  9993
2 54178  53.1615 129.6902 0001381  77.3556 282.7601 15.34388798205765
STARLINK-5122           
1 54179U 22141Y   26200.81885652  .00000748  00000+0  32347-4 0  9990
2 54179  53.1617 126.5457 0001225  93.1274 266.9869 15.35400947205862
STARLINK-5227           
1 54181U 22141AA  26200.77903149  .00000579  00000+0  27516-4 0  9994
2 54181  53.1616 127.0042 0001184  87.8039 272.3099 15.35394524205851
STARLINK-5231           
1 54182U 22141AB  26200.70212869  .00000352  00000+0  40253-4 0  9992
2 54182  53.1603 100.8371 0001498  93.4507 266.6656 15.08830200206215
STARLINK-5239           
1 54183U 22141AC  26200.19533985 -.00007787  00000+0 -21938-3 0  9990
2 54183  53.1609 129.7608 0000933  71.2841 288.8263 15.34429176205767
STARLINK-5162           
1 54184U 22141AD  26200.18832764  .00000660  00000+0  33042-4 0  9998
2 54184  53.1616 131.1102 0001177  83.5192 276.5943 15.31700103205744
STARLINK-5235           
1 54185U 22141AE  26200.12810897  .00000249  00000+0  18527-4 0  9990
2 54185  53.1619 130.0512 0001409  93.5421 266.5743 15.34389608205759
STARLINK-5240           
1 54187U 22141AG  26200.19994362  .00000151  00000+0  15242-4 0  9992
2 54187  53.1622 129.7954 0001472  93.9585 266.1586 15.35402006205766
