OBJECT_NAME,OBJECT_ID,EPOCH,MEAN_MOTION,ECCENTRICITY,INCLINATION,RA_OF_ASC_NODE,ARG_OF_PERICENTER,MEAN_ANOMALY,EPHEMERIS_TYPE,CLASSIFICATION_TYPE,NORAD_CAT_ID,ELEMENT_SET_NO,REV_AT_EPOCH,BSTAR,MEAN_MOTION_DOT,MEAN_MOTION_DDOT
GONETS-M 25,2022-139C,2026-07-19T19:45:53.088768,12.42891006,.0021327,82.5080,327.7541,157.2826,202.9202,0,U,54152,999,16970,.23335E-3,.42E-6,0
SKIF-D,2022-139D,2026-07-19T05:37:36.556896,5.00432406,.00074687,89.9488,96.6589,185.6510,174.4138,0,U,54153,999,6571,0,-.1E-7,0
STARLINK-5290,2022-141A,2026-07-19T19:26:10.459392,15.08830304,.0001365,53.1614,140.6670,84.6892,275.4255,0,U,54157,999,20566,.18075E-4,0,0
STARLINK-5297,2022-141B,2026-07-19T19:51:19.652256,15.08831558,.0001497,53.1605,140.7749,77.7279,282.3880,0,U,54158,999,20566,.56954E-4,.618E-5,0
STARLINK-5294,2022-141C,2026-07-19T19:46:00.932160,15.08833968,.0001568,53.1607,140.7584,77.0065,283.1102,0,U,54159,999,20566,.4191E-4,.379E-5,0
STARLINK-5233,2022-141D,2026-07-19T20:00:01.999008,15.28675466,.0001047,53.1608,94.4938,75.0450,287.8345,0,U,54160,999,583,.29384E-3,.7959E-4,0
STARLINK-5269,2022-141E,2026-07-19T20:00:01.999008,15.29354881,.000124,53.1610,139.4585,91.4073,247.0910,0,U,54161,999,579,.94849E-3,.27112E-3,0
STARLINK-5273,2022-141F,2026-07-19T19:35:24.407808,15.08839722,.0001623,53.1607,140.7036,75.5379,284.5793,0,U,54162,999,20566,.1998E-4,.3E-6,0
STARLINK-5161,2022-141G,2026-07-19T04:26:09.609216,15.34385703,.00012491,53.1610,129.6985,89.3691,270.7455,0,U,54163,999,20576,.26918297E-4,.533E-5,0
STARLINK-5278,2022-141H,2026-07-19T12:45:25.819776,15.34385917,.0001218,53.1625,128.3039,78.1581,281.9558,0,U,54164,999,20581,.23744E-4,.426E-5,0
STARLINK-5279,2022-141J,2026-07-19T05:11:38.447808,15.08822301,.00016794,53.1605,143.3627,96.8093,263.3090,0,U,54165,999,20557,.40953195E-4,.363E-5,0
STARLINK-5280,2022-141K,2026-07-19T12:55:10.144704,15.35403298,.0001249,53.1626,128.3429,83.9801,276.1344,0,U,54166,999,20581,.91263E-5,-.62E-6,0
STARLINK-5243,2022-141L,2026-07-19T20:38:57.153408,15.08831272,.000173,53.1600,140.2692,86.7222,273.3967,0,U,54167,999,20567,-.87963E-5,-.428E-5,0
STARLINK-5245,2022-141M,2026-07-19T19:15:13.178304,15.35400800,.0001333,53.1618,127.1482,90.8344,269.2811,0,U,54168,999,20585,.12731E-4,.64E-6,0
STARLINK-5282,2022-141N,2026-07-19T19:12:47.852640,15.35388677,.0001399,53.1618,127.1397,84.0376,276.0787,0,U,54169,999,20585,-.27521E-4,-.134E-4,0
STARLINK-5155,2022-141P,2026-07-19T12:23:00.809376,15.35399284,.00011385,53.1610,128.2097,90.9828,269.1305,0,U,54170,999,20581,.414525E-5,-.236E-5,0
STARLINK-5117,2022-141R,2026-07-19T04:19:15.957984,15.33547554,.00019663,53.1609,129.6699,89.6977,270.4250,0,U,54172,999,20576,.20201539E-4,.291E-5,0
STARLINK-5242,2022-141S,2026-07-19T04:47:22.256160,15.34367881,.00012325,53.1618,129.7850,74.1269,285.9870,0,U,54173,999,20576,.15157832E-3,.4743E-4,0
STARLINK-5248,2022-141T,2026-07-19T20:00:01.999008,15.21914379,.0002391,53.1598,74.6641,93.2138,195.0426,0,U,54174,999,578,.44437E-3,.9934E-4,0
STARLINK-5256,2022-141U,2026-07-19T20:00:01.999008,15.34398997,.0001765,53.1603,126.8705,95.8587,143.9165,0,U,54175,999,583,.27272E-3,.8849E-4,0
STARLINK-5154,2022-141V,2026-07-19T19:24:43.466688,15.34392161,.0001326,53.1621,126.4880,88.6094,271.5061,0,U,54176,999,20586,.21792E-4,.36E-5,0
STARLINK-5186,2022-141W,2026-07-19T18:36:23.085216,15.34384438,.0001619,53.1610,126.9822,93.2258,266.8930,0,U,54177,999,20585,.2354E-4,.419E-5,0
STARLINK-5164,2022-141X,2026-07-19T04:29:10.964544,15.34388798,.00013814,53.1615,129.6902,77.3556,282.7601,0,U,54178,999,20576,.19194865E-4,.272E-5,0
STARLINK-5122,2022-141Y,2026-07-19T19:39:09.203328,15.35400947,.0001225,53.1617,126.5457,93.1274,266.9869,0,U,54179,999,20586,.32347E-4,.748E-5,0
STARLINK-5227,2022-141AA,2026-07-19T18:41:48.320736,15.35394524,.0001184,53.1616,127.0042,87.8039,272.3099,0,U,54181,999,20585,.27516E-4,.579E-5,0
STARLINK-5231,2022-141AB,2026-07-19T16:51:03.918816,15.08830200,.0001498,53.1603,100.8371,93.4507,266.6656,0,U,54182,999,20621,.40253E-4,.352E-5,0
STARLINK-5239,2022-141AC,2026-07-19T04:41:17.363040,15.34429176,.00009337,53.1609,129.7608,71.2841,288.8263,0,U,54183,999,20576,-.21937556E-3,-.7787E-4,0
STARLINK-5162,2022-141AD,2026-07-19T04:31:11.508096,15.31700103,.00011775,53.1616,131.1102,83.5192,276.5943,0,U,54184,999,20574,.33041774E-4,.66E-5,0
STARLINK-5235,2022-141AE,2026-07-19T03:04:28.615008,15.34389608,.00014093,53.1619,130.0512,93.5421,266.5743,0,U,54185,999,20575,.18526533E-4,.249E-5,0
STARLINK-5240,2022-141AG,2026-07-19T04:47:55.128768,15.35402006,.00014728,53.1622,129.7954,93.9585,266.1586,0,U,54187,999,20576,.15242481E-4,.151E-5,0
